STARLINK-31616          
1 59270U 24050S   26068.61263666  .00001672  00000+0  68608-4 0  9999
2 59270  53.1608 181.5703 0001085 125.2346 234.8757 15.30178062110539
TEVEL2-4                
1 63213U 25052D   26068.69417973  .00020990  00000+0  70363-3 0  9998
2 63213  97.4009 325.1237 0004733  95.3468 264.8313 15.30925813 54879
